KUIPER-00044            
1 64505U 25134F   25321.58262811  .00005514  00000+0  74899-3 0  9995
2 64505  51.9018  22.3244 0011393 262.4896  97.4773 14.80063715 23284
KUIPER-00046            
1 64506U 25134G   25321.58637942  .00008611  00000+0  11490-2 0  9995
2 64506  51.9007  18.7730 0011833 271.3328  88.6279 14.80192218 23330
KUIPER-00047            
1 64507U 25134H   25321.47616190  .00006569  00000+0  83283-3 0  9996
2 64507  51.8997 351.3755 0007767 282.4821  77.5274 14.82719275 23706
KUIPER-00048            
1 64508U 25134J   25321.83337963  .00039281  00000+0  54298-2 0  9995
2 64508  51.9003 350.1929 0001725  59.5638  23.4658 14.77706050  4125
KUIPER-00049            
1 64509U 25134K   25321.39864138  .00006211  00000+0  83995-3 0  9990
2 64509  51.9020   5.5947 0002577 270.0086  90.0582 14.80090024 23509
KUIPER-00050            
1 64510U 25134L   25321.80047429  .00008524  00000+0  76862-3 0  9998
2 64510  51.8916   0.2077 0004678 311.6348  48.4221 14.96248539 23619
KUIPER-00051            
1 64511U 25134M   25321.80720579 -.00000837  00000+0 -80710-4 0  9992
2 64511  51.9040   1.3599 0001881 284.1416  75.9337 14.79959889 23591
KUIPER-00052            
1 64512U 25134N   25321.73660192  .00333611  00000+0  29680-2 0  9993
2 64512  51.8678 321.5980 0006252 359.5700   0.5293 15.66883480 24135
