<?xml version="1.0" encoding="UTF-8"?>
<ndm xmlns:xsi="http://www.w3.org/2001/XMLSchema-instance" xsi:noNamespaceSchemaLocation="https://sanaregistry.org/r/ndmxml_unqualified/ndmxml-2.0.0-master-2.0.xsd">
<omm id="CCSDS_OMM_VERS" version="2.0">
<header><CREATION_DATE/><ORIGINATOR/></header><body><segment><metadata><OBJECT_NAME>KUIPER-00044</OBJECT_NAME><OBJECT_ID>2025-134F</OBJECT_ID><CENTER_NAME>EARTH</CENTER_NAME><REF_FRAME>TEME</REF_FRAME><TIME_SYSTEM>UTC</TIME_SYSTEM><MEAN_ELEMENT_THEORY>SGP4</MEAN_ELEMENT_THEORY></metadata><data><meanElements><EPOCH>2025-11-17T13:58:59.068704</EPOCH><MEAN_MOTION>14.80063715</MEAN_MOTION><ECCENTRICITY>.00113936</ECCENTRICITY><INCLINATION>51.9018</INCLINATION><RA_OF_ASC_NODE>22.3244</RA_OF_ASC_NODE><ARG_OF_PERICENTER>262.4896</ARG_OF_PERICENTER><MEAN_ANOMALY>97.4773</MEAN_ANOMALY></meanElements><tleParameters><EPHEMERIS_TYPE>0</EPHEMERIS_TYPE><CLASSIFICATION_TYPE>U</CLASSIFICATION_TYPE><NORAD_CAT_ID>64505</NORAD_CAT_ID><ELEMENT_SET_NO>999</ELEMENT_SET_NO><REV_AT_EPOCH>2328</REV_AT_EPOCH><BSTAR>.74898998E-3</BSTAR><MEAN_MOTION_DOT>.5514E-4</MEAN_MOTION_DOT><MEAN_MOTION_DDOT>0</MEAN_MOTION_DDOT></tleParameters></data></segment></body></omm>
<omm id="CCSDS_OMM_VERS" version="2.0">
<header><CREATION_DATE/><ORIGINATOR/></header><body><segment><metadata><OBJECT_NAME>KUIPER-00046</OBJECT_NAME><OBJECT_ID>2025-134G</OBJECT_ID><CENTER_NAME>EARTH</CENTER_NAME><REF_FRAME>TEME</REF_FRAME><TIME_SYSTEM>UTC</TIME_SYSTEM><MEAN_ELEMENT_THEORY>SGP4</MEAN_ELEMENT_THEORY></metadata><data><meanElements><EPOCH>2025-11-17T14:04:23.181888</EPOCH><MEAN_MOTION>14.80192218</MEAN_MOTION><ECCENTRICITY>.00118334</ECCENTRICITY><INCLINATION>51.9007</INCLINATION><RA_OF_ASC_NODE>18.7730</RA_OF_ASC_NODE><ARG_OF_PERICENTER>271.3328</ARG_OF_PERICENTER><MEAN_ANOMALY>88.6279</MEAN_ANOMALY></meanElements><tleParameters><EPHEMERIS_TYPE>0</EPHEMERIS_TYPE><CLASSIFICATION_TYPE>U</CLASSIFICATION_TYPE><NORAD_CAT_ID>64506</NORAD_CAT_ID><ELEMENT_SET_NO>999</ELEMENT_SET_NO><REV_AT_EPOCH>2333</REV_AT_EPOCH><BSTAR>.11490379E-2</BSTAR><MEAN_MOTION_DOT>.8611E-4</MEAN_MOTION_DOT><MEAN_MOTION_DDOT>0</MEAN_MOTION_DDOT></tleParameters></data></segment></body></omm>
<omm id="CCSDS_OMM_VERS" version="2.0">
<header><CREATION_DATE/><ORIGINATOR/></header><body><segment><metadata><OBJECT_NAME>KUIPER-00047</OBJECT_NAME><OBJECT_ID>2025-134H</OBJECT_ID><CENTER_NAME>EARTH</CENTER_NAME><REF_FRAME>TEME</REF_FRAME><TIME_SYSTEM>UTC</TIME_SYSTEM><MEAN_ELEMENT_THEORY>SGP4</MEAN_ELEMENT_THEORY></metadata><data><meanElements><EPOCH>2025-11-17T11:25:40.388160</EPOCH><MEAN_MOTION>14.82719275</MEAN_MOTION><ECCENTRICITY>.0007767</ECCENTRICITY><INCLINATION>51.8997</INCLINATION><RA_OF_ASC_NODE>351.3755</RA_OF_ASC_NODE><ARG_OF_PERICENTER>282.4821</ARG_OF_PERICENTER><MEAN_ANOMALY>77.5274</MEAN_ANOMALY></meanElements><tleParameters><EPHEMERIS_TYPE>0</EPHEMERIS_TYPE><CLASSIFICATION_TYPE>U</CLASSIFICATION_TYPE><NORAD_CAT_ID>64507</NORAD_CAT_ID><ELEMENT_SET_NO>999</ELEMENT_SET_NO><REV_AT_EPOCH>2370</REV_AT_EPOCH><BSTAR>.83283402E-3</BSTAR><MEAN_MOTION_DOT>.6569E-4</MEAN_MOTION_DOT><MEAN_MOTION_DDOT>0</MEAN_MOTION_DDOT></tleParameters></data></segment></body></omm>
<omm id="CCSDS_OMM_VERS" version="2.0">
<header><CREATION_DATE/><ORIGINATOR/></header><body><segment><metadata><OBJECT_NAME>KUIPER-00048</OBJECT_NAME><OBJECT_ID>2025-134J</OBJECT_ID><CENTER_NAME>EARTH</CENTER_NAME><REF_FRAME>TEME</REF_FRAME><TIME_SYSTEM>UTC</TIME_SYSTEM><MEAN_ELEMENT_THEORY>SGP4</MEAN_ELEMENT_THEORY></metadata><data><meanElements><EPOCH>2025-11-17T20:00:04.000032</EPOCH><MEAN_MOTION>14.77706050</MEAN_MOTION><ECCENTRICITY>.0001725</ECCENTRICITY><INCLINATION>51.9003</INCLINATION><RA_OF_ASC_NODE>350.1929</RA_OF_ASC_NODE><ARG_OF_PERICENTER>59.5638</ARG_OF_PERICENTER><MEAN_ANOMALY>23.4658</MEAN_ANOMALY></meanElements><tleParameters><EPHEMERIS_TYPE>0</EPHEMERIS_TYPE><CLASSIFICATION_TYPE>U</CLASSIFICATION_TYPE><NORAD_CAT_ID>64508</NORAD_CAT_ID><ELEMENT_SET_NO>999</ELEMENT_SET_NO><REV_AT_EPOCH>412</REV_AT_EPOCH><BSTAR>.54298E-2</BSTAR><MEAN_MOTION_DOT>.39281E-3</MEAN_MOTION_DOT><MEAN_MOTION_DDOT>0</MEAN_MOTION_DDOT></tleParameters></data></segment></body></omm>
<omm id="CCSDS_OMM_VERS" version="2.0">
<header><CREATION_DATE/><ORIGINATOR/></header><body><segment><metadata><OBJECT_NAME>KUIPER-00049</OBJECT_NAME><OBJECT_ID>2025-134K</OBJECT_ID><CENTER_NAME>EARTH</CENTER_NAME><REF_FRAME>TEME</REF_FRAME><TIME_SYSTEM>UTC</TIME_SYSTEM><MEAN_ELEMENT_THEORY>SGP4</MEAN_ELEMENT_THEORY></metadata><data><meanElements><EPOCH>2025-11-17T09:34:02.615232</EPOCH><MEAN_MOTION>14.80090024</MEAN_MOTION><ECCENTRICITY>.00025779</ECCENTRICITY><INCLINATION>51.9020</INCLINATION><RA_OF_ASC_NODE>5.5947</RA_OF_ASC_NODE><ARG_OF_PERICENTER>270.0086</ARG_OF_PERICENTER><MEAN_ANOMALY>90.0582</MEAN_ANOMALY></meanElements><tleParameters><EPHEMERIS_TYPE>0</EPHEMERIS_TYPE><CLASSIFICATION_TYPE>U</CLASSIFICATION_TYPE><NORAD_CAT_ID>64509</NORAD_CAT_ID><ELEMENT_SET_NO>999</ELEMENT_SET_NO><REV_AT_EPOCH>2350</REV_AT_EPOCH><BSTAR>.83994767E-3</BSTAR><MEAN_MOTION_DOT>.6211E-4</MEAN_MOTION_DOT><MEAN_MOTION_DDOT>0</MEAN_MOTION_DDOT></tleParameters></data></segment></body></omm>
<omm id="CCSDS_OMM_VERS" version="2.0">
<header><CREATION_DATE/><ORIGINATOR/></header><body><segment><metadata><OBJECT_NAME>KUIPER-00050</OBJECT_NAME><OBJECT_ID>2025-134L</OBJECT_ID><CENTER_NAME>EARTH</CENTER_NAME><REF_FRAME>TEME</REF_FRAME><TIME_SYSTEM>UTC</TIME_SYSTEM><MEAN_ELEMENT_THEORY>SGP4</MEAN_ELEMENT_THEORY></metadata><data><meanElements><EPOCH>2025-11-17T19:12:40.978656</EPOCH><MEAN_MOTION>14.96248539</MEAN_MOTION><ECCENTRICITY>.0004678</ECCENTRICITY><INCLINATION>51.8916</INCLINATION><RA_OF_ASC_NODE>0.2077</RA_OF_ASC_NODE><ARG_OF_PERICENTER>311.6348</ARG_OF_PERICENTER><MEAN_ANOMALY>48.4221</MEAN_ANOMALY></meanElements><tleParameters><EPHEMERIS_TYPE>0</EPHEMERIS_TYPE><CLASSIFICATION_TYPE>U</CLASSIFICATION_TYPE><NORAD_CAT_ID>64510</NORAD_CAT_ID><ELEMENT_SET_NO>999</ELEMENT_SET_NO><REV_AT_EPOCH>2361</REV_AT_EPOCH><BSTAR>.76862E-3</BSTAR><MEAN_MOTION_DOT>.8524E-4</MEAN_MOTION_DOT><MEAN_MOTION_DDOT>0</MEAN_MOTION_DDOT></tleParameters></data></segment></body></omm>
<omm id="CCSDS_OMM_VERS" version="2.0">
<header><CREATION_DATE/><ORIGINATOR/></header><body><segment><metadata><OBJECT_NAME>KUIPER-00051</OBJECT_NAME><OBJECT_ID>2025-134M</OBJECT_ID><CENTER_NAME>EARTH</CENTER_NAME><REF_FRAME>TEME</REF_FRAME><TIME_SYSTEM>UTC</TIME_SYSTEM><MEAN_ELEMENT_THEORY>SGP4</MEAN_ELEMENT_THEORY></metadata><data><meanElements><EPOCH>2025-11-17T19:22:22.580256</EPOCH><MEAN_MOTION>14.79959889</MEAN_MOTION><ECCENTRICITY>.0001881</ECCENTRICITY><INCLINATION>51.9040</INCLINATION><RA_OF_ASC_NODE>1.3599</RA_OF_ASC_NODE><ARG_OF_PERICENTER>284.1416</ARG_OF_PERICENTER><MEAN_ANOMALY>75.9337</MEAN_ANOMALY></meanElements><tleParameters><EPHEMERIS_TYPE>0</EPHEMERIS_TYPE><CLASSIFICATION_TYPE>U</CLASSIFICATION_TYPE><NORAD_CAT_ID>64511</NORAD_CAT_ID><ELEMENT_SET_NO>999</ELEMENT_SET_NO><REV_AT_EPOCH>2359</REV_AT_EPOCH><BSTAR>-.8071E-4</BSTAR><MEAN_MOTION_DOT>-.837E-5</MEAN_MOTION_DOT><MEAN_MOTION_DDOT>0</MEAN_MOTION_DDOT></tleParameters></data></segment></body></omm>
<omm id="CCSDS_OMM_VERS" version="2.0">
<header><CREATION_DATE/><ORIGINATOR/></header><body><segment><metadata><OBJECT_NAME>KUIPER-00052</OBJECT_NAME><OBJECT_ID>2025-134N</OBJECT_ID><CENTER_NAME>EARTH</CENTER_NAME><REF_FRAME>TEME</REF_FRAME><TIME_SYSTEM>UTC</TIME_SYSTEM><MEAN_ELEMENT_THEORY>SGP4</MEAN_ELEMENT_THEORY></metadata><data><meanElements><EPOCH>2025-11-17T17:40:42.405888</EPOCH><MEAN_MOTION>15.66883480</MEAN_MOTION><ECCENTRICITY>.0006252</ECCENTRICITY><INCLINATION>51.8678</INCLINATION><RA_OF_ASC_NODE>321.5980</RA_OF_ASC_NODE><ARG_OF_PERICENTER>359.5700</ARG_OF_PERICENTER><MEAN_ANOMALY>0.5293</MEAN_ANOMALY></meanElements><tleParameters><EPHEMERIS_TYPE>0</EPHEMERIS_TYPE><CLASSIFICATION_TYPE>U</CLASSIFICATION_TYPE><NORAD_CAT_ID>64512</NORAD_CAT_ID><ELEMENT_SET_NO>999</ELEMENT_SET_NO><REV_AT_EPOCH>2413</REV_AT_EPOCH><BSTAR>.2968E-2</BSTAR><MEAN_MOTION_DOT>.333611E-2</MEAN_MOTION_DOT><MEAN_MOTION_DDOT>0</MEAN_MOTION_DDOT></tleParameters></data></segment></body></omm>

</ndm>
